IRIDIUM 144             
1 43249U 18030A   24180.75439210 -.00000006  00000+0 -93120-5 0  9997
2 43249  86.3975 230.6287 0002511  93.4395 266.7088 14.34217491327164
IRIDIUM 149             
1 43250U 18030B   24180.90027134  .00000020  00000+0  58100-7 0  9999
2 43250  86.3975 230.5430 0002348  90.6587 269.4878 14.34217696327204
IRIDIUM 157             
1 43251U 18030C   24180.91929840  .00000019  00000+0 -13189-6 0  9992
2 43251  86.3976 230.5721 0001966  88.7377 271.4044 14.34217640327183
IRIDIUM 140             
1 43252U 18030D   24181.56623069  .00000489  00000+0  16767-3 0  9991
2 43252  86.3971 230.3166 0002651  99.5192 260.6304 14.34223670327333
IRIDIUM 145             
1 43253U 18030E   24180.71633716  .00000019  00000+0 -25871-6 0  9997
2 43253  86.3972 230.6453 0002751  89.9707 270.1804 14.34217602327141
IRIDIUM 146             
1 43254U 18030F   24181.53453076  .00000024  00000+0  14309-5 0  9996
2 43254  86.3971 230.3182 0002526  91.4361 268.7124 14.34217782327272
IRIDIUM 148             
1 43255U 18030G   24180.66559509  .00000023  00000+0  11269-5 0  9999
2 43255  86.3972 230.7131 0002288  88.2581 271.8877 14.34217846327186
IRIDIUM 142             
1 43256U 18030H   24181.19203092  .00000019  00000+0 -40638-6 0  9991
2 43256  86.3973 230.4083 0002526  89.7988 270.3498 14.34217716327227
